{"type":"FeatureCollection", "features": [
{"type":"Feature","geometry":{"type":"Polygon","coordinates":[[[175.90330008390137,-36.258284882217566],[175.1538660172242,-35.70157998214095],[173.89663063261875,-36.558506199298094],[174.42559588285138,-37.36345358185],[175.38864521714896,-37.02189733195681],[175.16308438271764,-36.52393351536831],[175.90330008390137,-36.258284882217566]]]},"properties":{"code":"AUCKLAND","name":"Auckland region","region":"auckland"}},
{"type":"Feature","geometry":{"type":"Polygon","coordinates":[[[176.2523001842028,-38.91951216569473],[176.50532476712206,-38.4022137984953],[176.09003956729882,-38.166961349197145],[175.8060231508497,-37.51070144885451],[176.34867648411972,-36.89363461561074],[175.90330008390137,-36.258284882217566],[175.16308438271764,-36.52393351536831],[175.38864521714896,-37.02189733195681],[174.42559588285138,-37.36345358185],[174.56193815010263,-37.72802699906388],[174.3514094172906,-38.70174768179222],[174.9275289504358,-38.75631763239322],[175.45963789993027,-38.48434603246452],[175.63465636616934,-39.15836288237288],[176.11351666757344,-39.0912215486842],[176.17275390050904,-39.078485865765344],[176.25756295086669,-38.94787596565823],[176.2523001842028,-38.91951216569473]]]},"properties":{"code":"WAIKATO","name":"Waikato region","region":"waikato"}},
{"type":"Feature","geometry":{"type":"Polygon","coordinates":[[[176.11351666757344,-39.0912215486842],[176.09383140062604,-39.99550258236514],[176.3918843331537,-40.36170108215345],[176.8920788676465,-40.49313906577535],[177.35708913331317,-39.64856626525515],[178.1607890335355,-39.384159565510366],[178.22683835053374,-39.00162776630398],[177.66016393357012,-38.904700915786435],[177.12142615006525,-38.584311632476066],[176.2523001842028,-38.91951216569473],[176.25756295086669,-38.94787596565823],[176.17275390050904,-39.078485865765344],[176.11351666757344,-39.0912215486842]]]},"properties":{"code":"HAWKESBAY","name":"Hawke's Bay region","region":"hawkes_bay"}},
{"type":"Feature","geometry":{"type":"Polygon","coordinates":[[[171.40680098302536,-45.01536756553635],[171.5444776668607,-44.426053615933434],[172.19770118315708,-44.118744482180624],[173.25693535032957,-44.007087415850656],[172.98889098347655,-43.42472771594314],[173.56123134927967,-42.97241634883632],[174.2641025839832,-42.09921513168281],[173.95875125039524,-41.90852429871273],[173.00288744939357,-42.393277148693045],[172.48682354994742,-42.26579303215319],[171.69029348303155,-42.8999417658033],[171.3142448174733,-42.94814914852873],[170.22883231751047,-43.51903304894393],[169.6993366341802,-43.963546282198536],[169.70758985019427,-44.017135265252584],[169.68596620000932,-44.04191803255774],[169.56070255039143,-44.20549561597126],[169.54849976649993,-44.227578199164725],[169.64099833242577,-44.59600513194003],[170.09409876727366,-44.940019932567985],[171.40680098302536,-45.01536756553635]]]},"properties":{"code":"CANTERBURY","name":"Canterbury region","region":"canterbury"}},
{"type":"Feature","geometry":{"type":"Polygon","coordinates":[[[169.6993366341802,-43.963546282198536],[169.08144546645806,-44.09697638140569],[168.28974678292406,-44.49637073194228],[168.27477931730752,-44.52036393221259],[168.2248122328289,-44.582992082538006],[168.17497409956962,-44.69771166521283],[168.1819227156989,-44.745178532424426],[168.1274336003326,-44.82858094861618],[168.13716001661794,-44.9135432158295],[168.32329404983633,-45.32754316590301],[168.8869001325929,-45.46282046514416],[169.3420553999712,-46.839221648786086],[170.01941221594254,-46.60173164916336],[170.48211738414201,-46.14110134865992],[171.03566473378,-45.882108015177685],[171.40680098302536,-45.01536756553635],[170.09409876727366,-44.940019932567985],[169.64099833242577,-44.59600513194003],[169.54849976649993,-44.227578199164725],[169.56070255039143,-44.20549561597126],[169.68596620000932,-44.04191803255774],[169.70758985019427,-44.017135265252584],[169.6993366341802,-43.963546282198536]]]},"properties":{"code":"OTAGO","name":"Otago region","region":"otago"}},
{"type":"Feature","geometry":{"type":"Polygon","coordinates":[[[168.28974678292406,-44.49637073194228],[167.83811798286047,-44.12705769872476],[166.67712459941035,-45.070829599026816],[166.1897388157866,-45.62939644894497],[166.1887845821443,-46.097294999132195],[166.59798646586393,-46.656047948986576],[167.3654041991248,-46.93458338260639],[167.02808634930128,-47.201577382185384],[167.68475118215673,-47.70130771520727],[168.8381379166155,-46.869010798436335],[169.3420553999712,-46.839221648786086],[168.8869001325929,-45.46282046514416],[168.32329404983633,-45.32754316590301],[168.13716001661794,-44.9135432158295],[168.1274336003326,-44.82858094861618],[168.1819227156989,-44.745178532424426],[168.17497409956962,-44.69771166521283],[168.2248122328289,-44.582992082538006],[168.27477931730752,-44.52036393221259],[168.28974678292406,-44.49637073194228]]]},"properties":{"code":"SOUTHLAND","name":"Southland region","region":"southland"}}
]}