{"type": "FeatureCollection", "name": "nz_regional_boundaries_6councils", "crs": {"type": "name", "properties": {"name": "urn:ogc:def:crs:OGC:1.3:CRS84"}}, "source": "LAWA mapservice/boundaryforNZ (CC BY 4.0), derived from Stats NZ regional council boundaries", "fetched_utc": "2026-08-30", "features": [{"type": "Feature", "properties": {"code": "AUCKLAND", "name": "Auckland region", "region": "auckland"}, "geometry": {"type": "Polygon", "coordinates": [[[175.21666443358532, -35.716245682227765], [175.1538660172242, -35.70157998214095], [175.08383118343582, -35.69983003175988], [175.00737020043303, -35.70203221525857], [174.9320168667427, -35.72472216617201], [174.9113834171064, -35.713283365720855], [174.911144999776, -35.79660919845378], [174.8930449340209, -35.86590256586327], [174.86190515083297, -35.923779882598176], [174.80601643306764, -35.988541098573286], [174.60591051711495, -36.121623582322016], [174.60680153377194, -36.13278324922178], [174.5833050333615, -36.145350732452684], [174.58089661730156, -36.16639433243603], [174.57114673404192, -36.1661527325232], [174.56282878328153, -36.17908858237681], [174.53457296652826, -36.18351093233309], [174.52229970061614, -36.197224448974055], [174.52300216600955, -36.210075115538366], [174.47830011620607, -36.229523965581215], [174.4675785667836, -36.26018184920159], [174.45383381683845, -36.25328203187923], [174.3989883500859, -36.29256021512187], [174.37180541673774, -36.29902294925671], [174.35765845004417, -36.31511438176578], [174.34242023344638, -36.31982404893946], [174.31184029982714, -36.317641415694574], [174.29368484946687, -36.301810832066664], [174.23912439977906, -36.296260782252084], [174.19305131724346, -36.40158623242228], [173.89663063261875, -36.558506199298094], [173.96755565082503, -36.610547232555994], [173.9939112335531, -36.63899028230798], [174.05933705018703, -36.71019191612445], [174.14073916662252, -36.82214698251937], [174.1702391504304, -36.86718144844381], [174.25251526645349, -37.131852115922264], [174.28774691672564, -37.17685023184602], [174.33924963398943, -37.21421594849012], [174.42559588285138, -37.36345358185], [174.6592311000429, -37.29262109897502], [174.6582035665271, -37.2819820490182], [174.69988093311872, -37.26157801573057], [174.7225276660114, -37.25813374908108], [174.73888244930427, -37.26793871581015], [174.80631886681095, -37.22683563232886], [174.84811761643076, -37.23419913249602], [174.8503581670898, -37.25116888249469], [174.886790067491, -37.23063281592454], [174.93076393277298, -37.233109065192245], [174.93645045025772, -37.21464966513601], [174.92994368366016, -37.20623306589209], [174.9479864335674, -37.19574403188282], [174.97322098346868, -37.194764531718796], [174.99025808255416, -37.216585498731064], [175.01419303377384, -37.19692354906705], [175.02963000049994, -37.196162882475456], [175.02915778351797, -37.18884744888934], [175.03731616684647, -37.192059015419424], [175.05447148323574, -37.180792431795744], [175.06609258326048, -37.18188431575091], [175.07380698379478, -37.19474949861014], [175.08692961713763, -37.19231966512709], [175.08960851673547, -37.17950289871283], [175.1102860667971, -37.187891532164414], [175.13073681653015, -37.186374515796], [175.14190933269825, -37.175761015407986], [175.13390181701521, -37.168186465447135], [175.1441631672004, -37.16768881570018], [175.14524533337138, -37.14459073204796], [175.1538966836013, -37.136112782219406], [175.14081790053453, -37.09873151532998], [175.14759364947585, -37.05488228238102], [175.15560773373363, -37.047042898853014], [175.15209103343756, -37.02155834901825], [175.1607844334833, -37.015914698478355], [175.184762466584, -37.04076488272539], [175.20667948317202, -37.03734624927427], [175.20770560024542, -37.030062232244326], [175.38864521714896, -37.02189733195681], [175.37932141640496, -36.962630648554445], [175.31100728326513, -36.838384432864245], [175.26663753349342, -36.703843649231715], [175.16308438271764, -36.52393351536831], [175.2510187831589, -36.399723998924124], [175.41692074954258, -36.37988916528463], [175.62811641680983, -36.38503319843927], [175.90330008390137, -36.258284882217566], [175.84303236694964, -36.2366226490475], [175.77896080042834, -36.22798059862141], [175.7549630332959, -36.18567684857855], [175.7633519664368, -36.10971033202289], [175.74218491707396, -36.03979151555793], [175.70403783373928, -35.99100971515137], [175.6388355495992, -35.94758881528991], [175.5708142667161, -35.873473165875325], [175.48486508413308, -35.83377341600007], [175.43815676684252, -35.82528866567754], [175.3788628167584, -35.82523923232074], [175.32311343340646, -35.770650982537425], [175.21666443358532, -35.716245682227765]]]}}, {"type": "Feature", "properties": {"code": "WAIKATO", "name": "Waikato region", "region": "waikato"}, "geometry": {"type": "Polygon", "coordinates": [[[176.02181110024438, -36.37127286587333], [175.98133188354885, -36.314075448451675], [175.90330008390137, -36.258284882217566], [175.62811641680983, -36.38503319843927], [175.41692074954258, -36.37988916528463], [175.2510187831589, -36.399723998924124], [175.16308438271764, -36.52393351536831], [175.26663753349342, -36.703843649231715], [175.31100728326513, -36.838384432864245], [175.37932141640496, -36.962630648554445], [175.38864521714896, -37.02189733195681], [175.20770560024542, -37.030062232244326], [175.20667948317202, -37.03734624927427], [175.184762466584, -37.04076488272539], [175.1607844334833, -37.015914698478355], [175.15209103343756, -37.02155834901825], [175.15560773373363, -37.047042898853014], [175.14759364947585, -37.05488228238102], [175.14081790053453, -37.09873151532998], [175.1538966836013, -37.136112782219406], [175.14524533337138, -37.14459073204796], [175.1441631672004, -37.16768881570018], [175.13390181701521, -37.168186465447135], [175.14190933269825, -37.175761015407986], [175.13073681653015, -37.186374515796], [175.1102860667971, -37.187891532164414], [175.08960851673547, -37.17950289871283], [175.08692961713763, -37.19231966512709], [175.07380698379478, -37.19474949861014], [175.06609258326048, -37.18188431575091], [175.05447148323574, -37.180792431795744], [175.03731616684647, -37.192059015419424], [175.02915778351797, -37.18884744888934], [175.02963000049994, -37.196162882475456], [175.01419303377384, -37.19692354906705], [174.99025808255416, -37.216585498731064], [174.97322098346868, -37.194764531718796], [174.9479864335674, -37.19574403188282], [174.92994368366016, -37.20623306589209], [174.93645045025772, -37.21464966513601], [174.93076393277298, -37.233109065192245], [174.886790067491, -37.23063281592454], [174.8503581670898, -37.25116888249469], [174.84811761643076, -37.23419913249602], [174.80631886681095, -37.22683563232886], [174.73888244930427, -37.26793871581015], [174.7225276660114, -37.25813374908108], [174.69988093311872, -37.26157801573057], [174.6582035665271, -37.2819820490182], [174.6592311000429, -37.29262109897502], [174.42559588285138, -37.36345358185], [174.44739010084263, -37.409955415686554], [174.48154320053098, -37.59634484913969], [174.50240585065526, -37.63474209844388], [174.5356861004818, -37.67155274927951], [174.56193815010263, -37.72802699906388], [174.53183109985804, -37.77334354889036], [174.44807075027705, -37.794872315427675], [174.37323538312836, -37.84286253229476], [174.33312471668097, -37.89483378179325], [174.31459259982785, -37.95515214858098], [174.3163896337927, -38.0006396496171], [174.3320382667799, -38.04663778179473], [174.3688070492122, -38.096471682075595], [174.42661578356234, -38.13845383240677], [174.45171868311976, -38.209624749341806], [174.45144648285458, -38.24723783295723], [174.40618419990946, -38.29590886593453], [174.3812642169346, -38.3531488651677], [174.37522706727162, -38.58235203235017], [174.3514094172906, -38.70174768179222], [174.61524834958223, -38.705986716002585], [174.61691833341504, -38.72286819851989], [174.64721744993005, -38.72098161626354], [174.6539841836288, -38.73317773193625], [174.68745773385717, -38.72784433190006], [174.6933910338825, -38.73368766591438], [174.73763621720295, -38.73410014889892], [174.7535244166808, -38.744837182214404], [174.79416221610575, -38.73099939906594], [174.82420268336176, -38.74799549891408], [174.82822348309128, -38.76102386587813], [174.86289636739212, -38.774584065745906], [174.8676918837736, -38.76499358176805], [174.89602176753678, -38.75470551511565], [174.9275289504358, -38.75631763239322], [174.9378450336081, -38.75015856573777], [174.9348076334535, -38.73055523176189], [174.9541329005473, -38.71512494848414], [174.95328210081973, -38.701359415300644], [174.96433898347024, -38.6968190656263], [174.95672575046873, -38.664710415587216], [175.00047273326422, -38.66625979876691], [175.0510802508323, -38.64935734918138], [175.06997016663567, -38.63767448200691], [175.06945354916454, -38.63006669924239], [175.0930960006987, -38.638009298910724], [175.11644888267918, -38.62191304893834], [175.13889501646065, -38.63160428236529], [175.1732750495985, -38.62736528232952], [175.1952395500211, -38.62944706633968], [175.20770148375985, -38.63902314911984], [175.22242116708645, -38.636498599034496], [175.24849258355624, -38.6153733658818], [175.26532238392141, -38.61371506596278], [175.28512801734615, -38.58799328177182], [175.30189768403238, -38.599187182086034], [175.3029934998459, -38.571465548835725], [175.3247045667634, -38.55138626632171], [175.3346752340549, -38.559316199276296], [175.33553223385215, -38.58151894846118], [175.37779475082124, -38.572660449141296], [175.38346621637368, -38.541771131865914], [175.39516451714803, -38.54321948236975], [175.40810568340981, -38.53380654908664], [175.41610256753358, -38.51319071559864], [175.45963789993027, -38.48434603246452], [175.48140449990112, -38.47883906595867], [175.4845237333749, -38.48403404901738], [175.5420790999496, -38.48057696528534], [175.53824498382775, -38.47032719917711], [175.56548914985152, -38.494531298626065], [175.61218516604384, -38.48761161528856], [175.62537129952668, -38.5451540985301], [175.63693630031545, -38.552464165126416], [175.63252325064246, -38.59162458170644], [175.6003418664225, -38.63412466534193], [175.57592901740475, -38.64985193227448], [175.57957898400852, -38.6818063987365], [175.51835014984158, -38.753286215262236], [175.54165290039361, -38.79511026524527], [175.55546964990387, -38.790240098850695], [175.577187516772, -38.823170765569785], [175.5447150330556, -38.86447463205424], [175.5799698335376, -38.910684248750385], [175.55388358344842, -38.95571588182496], [175.56077126671084, -38.97268534853879], [175.5694168503916, -38.970142948567016], [175.56263365025717, -38.98682969894562], [175.62688620001998, -38.97400598215452], [175.64123316662733, -38.98028558256403], [175.68201241733172, -38.979710499320134], [175.64805250036156, -39.014413381859114], [175.6357694832149, -39.045315048936686], [175.61355901656202, -39.05064204885446], [175.624583233113, -39.05986913213512], [175.618746233692, -39.08259509853729], [175.6478155495638, -39.100078249271235], [175.63465636616934, -39.15836288237288], [175.55785421646794, -39.275998348577694], [175.66921176656925, -39.29693414851474], [175.704805633016, -39.288319148664364], [175.74111353244137, -39.29748224863856], [175.75184606729908, -39.28787669845443], [175.8125688005116, -39.30032621558519], [175.84256004944177, -39.27071949925919], [175.86809101712132, -39.263034531710694], [175.8546739498726, -39.24439859844971], [175.8926657673248, -39.22364479855338], [175.88597071644895, -39.20589518259394], [175.96420350046296, -39.17997339881762], [175.9640337828875, -39.15952844845995], [175.97342701703525, -39.15480386514143], [175.9887987005478, -39.11592699918755], [176.00397673348573, -39.11293926590889], [176.02306611592383, -39.08288306525978], [176.03137468358028, -39.078210932537175], [176.03245895076142, -39.09951288235066], [176.0543575827206, -39.10576071590394], [176.06876246641383, -39.122571782236164], [176.08785940062268, -39.1296814657089], [176.09560713417383, -39.10692724925387], [176.11351666757344, -39.0912215486842], [176.17275390050904, -39.078485865765344], [176.17845108353941, -39.06631526548529], [176.17125036681912, -39.05761296546813], [176.14462320012865, -39.051015332339134], [176.14565238410694, -39.03997891596225], [176.25756295086669, -38.94787596565823], [176.2523001842028, -38.91951216569473], [176.24264848274285, -38.9172423158549], [176.24571611667406, -38.89662586524954], [176.25838093413918, -38.889990882277964], [176.25511376692296, -38.808178182420576], [176.45098049984605, -38.56165723193381], [176.4752061838212, -38.544378498421565], [176.4747900166215, -38.51594008248331], [176.50532476712206, -38.4022137984953], [176.4687624834456, -38.35895689964259], [176.4469759009189, -38.3565168656444], [176.44992481729778, -38.33052479889741], [176.44033886852495, -38.31338281552032], [176.40794990079849, -38.32609771570504], [176.39049443372434, -38.322972982522394], [176.28107353264943, -38.218906031311256], [176.26481071709503, -38.21475541510813], [176.23556296656812, -38.23767028258814], [176.22170423376954, -38.2379500818591], [176.22410681652605, -38.22731898205028], [176.209274283808, -38.21942733186835], [176.20431528349624, -38.20534569915846], [176.1945416834323, -38.20837163196348], [176.19048186718499, -38.19586734904435], [176.15033483416792, -38.21818639863962], [176.11010853310387, -38.166862999138836], [176.09003956729882, -38.166961349197145], [176.07622086673499, -38.10158416588814], [176.06346718415475, -38.09529701546436], [176.06853655002027, -38.086122265793705], [176.07650253261613, -38.08919811513938], [176.07560371746513, -38.049564398781705], [176.05503308303426, -38.03990836600441], [176.06225173403115, -38.02682293199526], [176.0131800995417, -37.99347463227759], [175.9714801830297, -37.98640803177326], [175.97110398402137, -37.970154731812926], [175.94942648394152, -37.95674376539343], [175.94140090006408, -37.92782128246912], [175.9771878332767, -37.91367303191026], [175.95423776677688, -37.90190863203575], [175.9718337832102, -37.882847415760835], [175.96093161712244, -37.889397182058616], [175.94780428389447, -37.87880971566697], [175.93625078362624, -37.8813630986094], [175.93990766622636, -37.868013365539554], [175.92785026594413, -37.852077199183405], [175.9350057166068, -37.84263698242442], [175.90587381653606, -37.82855166516815], [175.92771494930443, -37.77600343188272], [175.8952126669015, -37.72422231524701], [175.8968307507111, -37.711808032321855], [175.87949523314427, -37.699311532363886], [175.8652448997423, -37.66811106538022], [175.85206001756234, -37.66204741533994], [175.8407995506134, -37.64193448170184], [175.8335867170545, -37.62748711643875], [175.84147919925425, -37.61330878203364], [175.81171768381088, -37.564267548683496], [175.83103756716065, -37.536839882551064], [175.82325078307764, -37.51584849908907], [175.8060231508497, -37.51070144885451], [175.8179517671975, -37.49266966599704], [175.8135262668427, -37.4849100484094], [175.83277586754713, -37.47160198227958], [175.86561543247558, -37.500362498615445], [175.89928606756652, -37.495683065963775], [175.88055998400122, -37.46950016618258], [175.8720363666799, -37.473477865209375], [175.86085873397576, -37.46109983205023], [175.87750300040878, -37.45106726513869], [175.87755321611058, -37.44319204860933], [175.89084250000494, -37.44368624898139], [175.91349221692244, -37.425586715893864], [175.90393423287168, -37.405679116137726], [175.92454204992387, -37.40441856536618], [175.91679621591126, -37.398596098809975], [175.926047083209, -37.38334553248093], [175.9166015335952, -37.37930898178709], [175.940391299304, -37.37337371546863], [176.12930728347712, -37.160582382279564], [176.34867648411972, -36.89363461561074], [176.3316867666965, -36.85514518220843], [176.29560041755894, -36.810544165888906], [176.22673751657584, -36.75738109857276], [176.16628223368258, -36.73116489909323], [176.18957738348556, -36.67783654846752], [176.1974495500084, -36.627940398819405], [176.17304936721706, -36.52677406590558], [176.1290687170514, -36.46102398176769], [176.08442393336685, -36.42651126517683], [176.03286200018073, -36.40275934852469], [176.02181110024438, -36.37127286587333]]]}}, {"type": "Feature", "properties": {"code": "HAWKESBAY", "name": "Hawke's Bay region", "region": "hawkes_bay"}, "geometry": {"type": "Polygon", "coordinates": [[[177.1492978333316, -38.59505849847887], [177.12142615006525, -38.584311632476066], [177.09973735065662, -38.62744438224748], [177.0779081998716, -38.610643948822975], [177.06075853344072, -38.62209904928829], [177.04597950030495, -38.62080223214707], [177.02695526657507, -38.63951454848747], [177.01700156705246, -38.667170865707845], [176.9713503994806, -38.704771715663185], [176.96185651709231, -38.69683383281528], [176.92920075031907, -38.698170549268205], [176.8994847008643, -38.682586965083985], [176.88683716705012, -38.66650271573001], [176.8613529329689, -38.680055699232625], [176.84560891757422, -38.67252454904235], [176.82250956682475, -38.69136231523097], [176.7993905669718, -38.68052524914161], [176.77327415000522, -38.684496165295556], [176.7592312669254, -38.70885056529191], [176.74421860036668, -38.71193229890333], [176.74288290054793, -38.727759265481275], [176.72710043325915, -38.72180416512294], [176.71407713344902, -38.72787706523878], [176.7079250996567, -38.78904853186508], [176.69203250083766, -38.806250848923554], [176.7040655667316, -38.82708184904281], [176.69665545028434, -38.85642683181962], [176.67836581661714, -38.85557128193427], [176.6762420171711, -38.84027459843233], [176.6590196000849, -38.835195949189355], [176.65165646597154, -38.82203811547947], [176.60814451711695, -38.82285496530039], [176.58973845057204, -38.83534249938052], [176.56057599992437, -38.800197949290435], [176.51990686665314, -38.797144248618835], [176.50853926663223, -38.81293958248653], [176.50934793353562, -38.85301326591047], [176.49694745076164, -38.85793433242296], [176.49532510049676, -38.881410565445115], [176.46618840087606, -38.892780482721335], [176.4607868996509, -38.91125303203846], [176.44169190011954, -38.92032454956743], [176.46810523362404, -38.9414036486585], [176.43480626692212, -38.96885384943132], [176.45530170026967, -38.98905351549937], [176.44803680023279, -39.00409134885869], [176.38157218385655, -38.98847001581176], [176.3581734665106, -38.958412215898456], [176.3342110174481, -38.95443428210563], [176.31021491684868, -38.901977715687266], [176.25059233326792, -38.89172618170811], [176.2428612499516, -38.92025434899276], [176.2523001842028, -38.91951216569473], [176.25756295086669, -38.94787596565823], [176.14486240002535, -39.04123528212353], [176.14575015025417, -39.05191823253295], [176.17647633314309, -39.06363401547306], [176.17275390050904, -39.078485865765344], [176.11351666757344, -39.0912215486842], [176.0846143001698, -39.13076574897735], [176.08348996646467, -39.150048065389186], [176.10289556611517, -39.17653148177707], [176.08683774917267, -39.18037064851577], [176.0903697668032, -39.199971732351074], [176.0749853671761, -39.21089459864792], [176.07765985021595, -39.21674009865052], [176.09399866682082, -39.210940399131275], [176.1154894333714, -39.218784265101874], [176.08072121686152, -39.25995404899884], [176.1024278493824, -39.31519079890665], [176.12180146686396, -39.32707913175614], [176.11501636615628, -39.33920326518743], [176.04379813353674, -39.371971165466775], [176.04326953319, -39.381755349192545], [176.06876898359943, -39.39225494909283], [176.08463564979326, -39.38347419848434], [176.11155828409258, -39.384708732405116], [176.12144626702494, -39.4344388658276], [176.144023866749, -39.44849284921108], [176.13694696589755, -39.475936582988844], [176.16642746732387, -39.500582365639055], [176.1940502669281, -39.505073615214314], [176.18227978396087, -39.542605715225726], [176.15191394997794, -39.56023571520136], [176.15500893333288, -39.569401066381516], [176.14250138383636, -39.57989468177747], [176.15274323413294, -39.59827978173503], [176.17899221609565, -39.605251615761084], [176.18125181693026, -39.61693284927336], [176.16509286645962, -39.6486541152987], [176.1959379338104, -39.663570965716154], [176.2008709506043, -39.67299013213925], [176.18423239985836, -39.683780065271485], [176.1805465161355, -39.711064232076126], [176.1690859834574, -39.717915415802516], [176.1768525997329, -39.744049098641504], [176.1172044668661, -39.88676723181093], [176.12688920085697, -39.891551232089704], [176.1261184504577, -39.90477541553855], [176.10683496670367, -39.91708793174119], [176.115429766489, -39.92940391579523], [176.10973578394265, -39.94185586510872], [176.1244993341712, -39.94775794877263], [176.12111370083235, -39.96244708231113], [176.09383140062604, -39.99550258236514], [176.13662734979323, -40.02857813295768], [176.15427360000413, -40.01222691542272], [176.21354466743384, -40.01781713202166], [176.21784870063527, -40.02881761548362], [176.23878316709443, -40.027332982564964], [176.23865518409255, -40.03839071534952], [176.26224058317084, -40.04509811531879], [176.26376028287584, -40.06271331550463], [176.29724093386162, -40.06805148175882], [176.32088188356212, -40.08562668256995], [176.31318598347428, -40.12392486520514], [176.32960428262902, -40.122506965244746], [176.34322111740545, -40.145537215121635], [176.37874693361138, -40.15814203229559], [176.35869516705463, -40.19788193241958], [176.36172335072374, -40.21533454883901], [176.37016856699265, -40.21440126510903], [176.3702702495265, -40.234247265804825], [176.38031111760816, -40.23742186589136], [176.38630465009095, -40.26570899845356], [176.37809160013387, -40.27247574848543], [176.3992164500419, -40.28487849896173], [176.38891128310547, -40.3229886329949], [176.40584611757924, -40.33303249912703], [176.37064418379006, -40.358621282177936], [176.3918843331537, -40.36170108215345], [176.39146561631821, -40.3777725990442], [176.40704158287116, -40.37864338226467], [176.4177845001081, -40.392317932575274], [176.43642805087947, -40.391506749677326], [176.4339050999935, -40.402937365464155], [176.46032928336143, -40.41157419872228], [176.49155765032395, -40.411922516406875], [176.49285993315513, -40.400128849035305], [176.54995816606407, -40.42117346592839], [176.55875333292997, -40.407205748976295], [176.57856733273454, -40.414618848457415], [176.58733366668378, -40.43129144861904], [176.5897246828139, -40.42255323203102], [176.62256904985048, -40.4280165152617], [176.8920788676465, -40.49313906577535], [176.90390295056736, -40.42208058254392], [176.91793231692535, -40.3995851988773], [176.99184021742013, -40.35196564917451], [177.11775706734517, -40.20916791562737], [177.15554871660945, -40.12012606518384], [177.1625302998833, -40.05546628183527], [177.20302785000885, -39.98606121619445], [177.25403511663814, -39.940866231861555], [177.28465563282307, -39.88885676563075], [177.29419859958816, -39.84538294903155], [177.2880400835862, -39.789296315864114], [177.34159310019544, -39.71136828180762], [177.35708913331317, -39.64856626525515], [177.29547111687302, -39.30959316510263], [177.4311109499444, -39.26619844929939], [177.49756323275477, -39.25670701515223], [177.58997960097963, -39.25457479848123], [177.6209825673788, -39.377358832497066], [177.64884605114642, -39.41848103207265], [177.68612365048048, -39.45209123241686], [177.733929067103, -39.47948744918754], [177.7997891007567, -39.50095413292356], [177.8632176841216, -39.508375281807595], [177.93203820108386, -39.502650415218696], [177.98675140062903, -39.48667224914415], [178.09428923324236, -39.43605679879689], [178.1607890335355, -39.384159565510366], [178.19993853402, -39.312718315120485], [178.20221741708866, -39.24067519858604], [178.2448966337464, -39.18079631550223], [178.2621190672479, -39.124478632288394], [178.25713853417875, -39.06429934891442], [178.22683835053374, -39.00162776630398], [177.860903899745, -38.965164248798665], [177.8347969172683, -38.95277941531067], [177.84452763395984, -38.92150343205856], [177.83048098373342, -38.91161311530214], [177.82194228347478, -38.921686399280325], [177.80473878416632, -38.91181778191118], [177.79902500085956, -38.894390299260934], [177.77612315027, -38.912812365306905], [177.74923453317456, -38.89667363237507], [177.72890145001136, -38.9188038319163], [177.7217448502179, -38.89827528229448], [177.71064435071983, -38.90648718193256], [177.67399310019323, -38.89903841528042], [177.66016393357012, -38.904700915786435], [177.66238171734793, -38.84582174879444], [177.64790808390137, -38.86278059917379], [177.6394906505995, -38.86110914927695], [177.63691926772884, -38.87108669920575], [177.62607479941687, -38.84337571531699], [177.59978118364862, -38.8518981658476], [177.5904584171387, -38.82844531561416], [177.59313481714386, -38.80313739916779], [177.56096310035917, -38.801608699047975], [177.5306461001146, -38.819707631726736], [177.53893521677554, -38.812635615647956], [177.5313276829683, -38.79160278172286], [177.5144341835561, -38.774448415418775], [177.4942120841337, -38.77797428219614], [177.48352656705435, -38.75505636522754], [177.46989171730857, -38.75544106563736], [177.47588053332402, -38.7317569991194], [177.46623191721073, -38.7056116990816], [177.43966605008416, -38.70409558204387], [177.4293048001161, -38.69217958240652], [177.40875118341273, -38.69937504865738], [177.4478827005724, -38.635929248525386], [177.39242865061695, -38.62205894838763], [177.35342516754625, -38.62455786556759], [177.3089890675453, -38.596900582383896], [177.30756064993864, -38.659704199088715], [177.1492978333316, -38.59505849847887]]]}}, {"type": "Feature", "properties": {"code": "CANTERBURY", "name": "Canterbury region", "region": "canterbury"}, "geometry": {"type": "Polygon", "coordinates": [[[173.75393890010483, -41.914466748900125], [173.76207636598915, -41.91190514894548], [173.75028205046797, -41.908860632050576], [173.73664478316383, -41.91137936523262], [173.71553573275628, -41.93816651563783], [173.7202101663286, -41.9607712153128], [173.66321856672917, -41.98210288211295], [173.66283218390976, -41.99594689889919], [173.6381497828396, -42.00937193225743], [173.60970591752624, -42.00452683222035], [173.59450423262933, -42.029289549276115], [173.57128988414317, -42.032998415140014], [173.5551085663887, -42.045923682312996], [173.5468016668072, -42.06978988236739], [173.51763731705574, -42.06939318209195], [173.4991074999428, -42.078736682452956], [173.4839894508336, -42.09941154934055], [173.48648166728944, -42.110448932244395], [173.46304501728235, -42.1178106992509], [173.48410795033834, -42.181460731744394], [173.46402576758837, -42.17975418178886], [173.46446335014727, -42.195673698966935], [173.4433755500006, -42.20210503233513], [173.43696210077624, -42.21418309927], [173.42218356699578, -42.20904554884929], [173.39754336676236, -42.22114553183811], [173.38385546738883, -42.217145682323384], [173.3681810997027, -42.224636815873694], [173.37319228259207, -42.23680754886331], [173.35113879972525, -42.24271184844168], [173.34154851666793, -42.22790303244626], [173.33332258337364, -42.24664913184211], [173.29645435022624, -42.24803259876905], [173.29587160071998, -42.26575354905954], [173.24452471747978, -42.30310411521988], [173.20715841710796, -42.317068015194025], [173.2049730993796, -42.33397243184905], [173.18322371750293, -42.3368212986413], [173.18065146606725, -42.34640404896059], [173.2259005994493, -42.34632844857702], [173.24331679963672, -42.356084766161786], [173.22376610053894, -42.35668493203326], [173.22067243338628, -42.38010066577373], [173.2090707173587, -42.383051748402835], [173.1901030340505, -42.41041423179963], [173.16430443291054, -42.41850663214471], [173.15232019977327, -42.44960276542889], [173.10625094965928, -42.44768113249307], [173.09580531733755, -42.46075263212887], [173.0761037672325, -42.460918965329725], [173.06921516641685, -42.480694781771284], [173.054454767115, -42.4880479486132], [173.03578900075559, -42.48347053193557], [173.03334485007417, -42.458288082243676], [173.01449424915822, -42.44629149898189], [172.99906453287153, -42.452391232119396], [172.9695193997949, -42.44867989885341], [173.00288744939357, -42.393277148693045], [172.9744550163878, -42.39534629898654], [172.9413934502304, -42.37782503257945], [172.94378954921507, -42.35127694847132], [172.91961051668693, -42.34589084866912], [172.91497483383685, -42.30928466582524], [172.86952351666437, -42.31766916562405], [172.84688208241516, -42.30794408201226], [172.84225288352403, -42.28958853252618], [172.86346378355344, -42.256239915734504], [172.82656375009094, -42.24822913248448], [172.8226812334861, -42.20866494900393], [172.83175309950593, -42.184172865755414], [172.80694781735122, -42.18947469925475], [172.79576715004333, -42.179602215235285], [172.79379360014494, -42.161707631871074], [172.749643750588, -42.172367048536145], [172.72918301724798, -42.16535586526923], [172.7188492325484, -42.14907714854221], [172.72600873380887, -42.13478223259151], [172.72023469987192, -42.10268408206381], [172.69112280000925, -42.10660941535984], [172.6784034008726, -42.08785009880024], [172.63690826605176, -42.101499715810725], [172.63165668341932, -42.1218997151717], [172.64086190032313, -42.13289608183641], [172.60969248315917, -42.16584343189361], [172.61622268268138, -42.194157298900016], [172.58884326642698, -42.21540296588877], [172.55937374994974, -42.21995899864925], [172.51519331688243, -42.2640266492232], [172.48682354994742, -42.26579303215319], [172.47854981625608, -42.27286314864406], [172.47797848356146, -42.29139263211852], [172.4616986999926, -42.30746544890903], [172.4661457164942, -42.31951339908019], [172.44870693391306, -42.32861474896202], [172.4435669502204, -42.366750131966825], [172.4168471838191, -42.38376034896422], [172.39335068395982, -42.37792493188184], [172.34719364914002, -42.391823515907745], [172.32476896723668, -42.4164484487065], [172.29979373329635, -42.42173918229012], [172.29327920007063, -42.440414999232495], [172.27878693339935, -42.44989878220662], [172.23570523356747, -42.45653194920316], [172.22713229944068, -42.47952331608544], [172.18688479994645, -42.50394861571499], [172.17829218346938, -42.53550653203864], [172.15584435004263, -42.553100782408634], [172.1328994832067, -42.555251082416774], [172.10849523283014, -42.580465998596104], [172.09343496680125, -42.62120419887345], [172.02849340024906, -42.63676304904244], [172.01554961724202, -42.63184066569692], [171.97465898312458, -42.6390377652845], [171.97234029936956, -42.653468232156605], [171.92592375028897, -42.66620284925004], [171.90798925008428, -42.70469743234329], [171.88505700033676, -42.71874636541525], [171.88436236680232, -42.74966033242916], [171.86373478262664, -42.75052301618882], [171.84333251669017, -42.774823765734595], [171.8124741499468, -42.783820081717316], [171.81256091663099, -42.789962265231985], [171.78909138284158, -42.782807881907004], [171.7638806662791, -42.79167696553135], [171.75445984973197, -42.818794432278786], [171.76268068338214, -42.83705078253372], [171.7329752828604, -42.85335398182663], [171.7463697507115, -42.87408069909256], [171.71078453275263, -42.89576566552143], [171.71014255009808, -42.90381736538053], [171.68692199910322, -42.90612529883001], [171.69029348303155, -42.8999417658033], [171.6652322165717, -42.88632201589536], [171.63405761659055, -42.90260204846721], [171.59160020034756, -42.901374682402846], [171.5868604158879, -42.895741531984356], [171.55954371738042, -42.90746314873909], [171.52655255040008, -42.906730531950565], [171.5172451162552, -42.91423041555662], [171.49100984977704, -42.89592589859742], [171.46877166743877, -42.9141535154108], [171.45445989968724, -42.90921111526665], [171.44228358311733, -42.91372096590412], [171.43439675020997, -42.92144764919594], [171.43751670071038, -42.93568764938041], [171.42580345033906, -42.9353693323851], [171.39601403319725, -42.95931186516858], [171.39315540023145, -42.942620798481826], [171.38184926638849, -42.9460398157846], [171.36219599918297, -42.937185499680965], [171.34518554914882, -42.94970738209279], [171.33612733327112, -42.943250681885964], [171.3142448174733, -42.94814914852873], [171.30311586603528, -42.958095949008914], [171.30843901615108, -42.96622686545639], [171.28220629990446, -42.97312213238463], [171.2376690159788, -43.00251148230659], [171.2406965334775, -43.030973381777095], [171.22274378287864, -43.04325186596272], [171.21960263309418, -43.064650948458734], [171.19814829971853, -43.07428801586179], [171.18420551672565, -43.06436418226318], [171.14589681638407, -43.08884831528326], [171.1289101828625, -43.081302216174244], [171.11637035031373, -43.086295732493205], [171.10729438335122, -43.1112676151751], [171.08467326750585, -43.101093282247454], [171.06420693419494, -43.1140774653285], [171.06757651659876, -43.12826929953928], [171.0373843493002, -43.14586506580992], [171.0472745334803, -43.163610815109], [171.020029266442, -43.17452768210868], [170.99173670086932, -43.21764244892841], [170.94846828327144, -43.227268232480014], [170.94821038349787, -43.20598883230261], [170.92873346681876, -43.20653541567087], [170.90684070044293, -43.22870858251217], [170.87309006692638, -43.24581749841211], [170.870687683945, -43.2725349817971], [170.8602626164724, -43.28139999916481], [170.83120546665043, -43.28306226529462], [170.8199246995966, -43.29969036533005], [170.80571123303238, -43.304472748452575], [170.79279869928266, -43.29907158272764], [170.75981740058356, -43.318304665265494], [170.70530584971277, -43.31879579865974], [170.71613958408332, -43.343235265759304], [170.67741275007074, -43.347645149148356], [170.6467199506273, -43.36930851537599], [170.65663495052618, -43.386887148990894], [170.6329302338682, -43.39681718186046], [170.61555370025997, -43.41795539880971], [170.6150566672572, -43.43187088256613], [170.59127776642282, -43.43401751543527], [170.58072776645253, -43.430024198675625], [170.58024293279698, -43.418503032403954], [170.5566686666818, -43.42415203203621], [170.52968171745187, -43.40998129903128], [170.5113279174555, -43.42840824909379], [170.47548693339766, -43.43297531557297], [170.4591985673907, -43.4613141823097], [170.4338124673319, -43.46581126532142], [170.39502716644958, -43.49817011516604], [170.35662125001215, -43.506292082044276], [170.33482218244802, -43.4979617659495], [170.3284533166579, -43.481657348814636], [170.29922993355967, -43.50173974869246], [170.22883231751047, -43.51903304894393], [170.19848285068605, -43.55318909885078], [170.16069323356234, -43.56308011561566], [170.14662805041007, -43.57381914879678], [170.1398157003095, -43.58944961533235], [170.0981314172802, -43.59547938238694], [170.09514514988334, -43.655612165125056], [170.02845791673133, -43.69080499914747], [170.0228884997601, -43.70609629925524], [170.030486650867, -43.72317148240669], [170.00616348370434, -43.7408245657932], [169.97876866650435, -43.74707884899063], [169.98469373357005, -43.75938599919091], [169.9704396339563, -43.77320068219119], [169.97274894972668, -43.78725538180078], [169.9435716333917, -43.789099232299044], [169.93328313384063, -43.800481081839145], [169.89997019977673, -43.813024832192184], [169.89434651725335, -43.83372651533097], [169.85841721631675, -43.836984632310234], [169.83793528326197, -43.85423526558162], [169.83790451748519, -43.86663058198778], [169.80900705014736, -43.87469784885826], [169.79309356688728, -43.89261778254202], [169.77089495033124, -43.89931241617423], [169.75829939964572, -43.93367141576362], [169.74585923348198, -43.93130458247932], [169.71996158332004, -43.95990381548975], [169.6993366341802, -43.963546282198536], [169.7114545667461, -43.99724884927013], [169.70758985019427, -44.017135265252584], [169.71937724908173, -44.0367076158185], [169.68596620000932, -44.04191803255774], [169.6820236002094, -44.06841871530965], [169.6650160164659, -44.06773734910332], [169.66123529915043, -44.09150244858714], [169.63916265024812, -44.10179616573951], [169.6386787998733, -44.11992459950188], [169.62497129975316, -44.12248121509685], [169.62044506674798, -44.13996469927757], [169.59888521597148, -44.15029901581656], [169.60582318349097, -44.15851884874528], [169.57106993387046, -44.17722914917422], [169.56070255039143, -44.20549561597126], [169.54310479991165, -44.20830394872236], [169.54849976649993, -44.227578199164725], [169.57046306740241, -44.23673219853655], [169.58060883314013, -44.252348181752225], [169.56839560000165, -44.31937198199355], [169.57878333408473, -44.34012561644673], [169.55671228381792, -44.38095399906727], [169.56561253383478, -44.40230969919418], [169.54588436748114, -44.42266239880403], [169.55620179981563, -44.437585682331715], [169.54249753385335, -44.44860019926649], [169.57387139980054, -44.46234634870687], [169.64188941693627, -44.466424648606385], [169.64747878334188, -44.48115106539498], [169.63432211633076, -44.50175214846965], [169.65015306617164, -44.520954899223334], [169.64768503409596, -44.531101882404165], [169.663398099541, -44.53722539868763], [169.6406918998839, -44.564783765423435], [169.64099833242577, -44.59600513194003], [169.68177189993054, -44.597888215425435], [169.68528976699147, -44.606092815957695], [169.7085019497449, -44.60097619953024], [169.7305851166043, -44.56507028169967], [169.75715179933917, -44.6121328151563], [169.7548768832774, -44.63891663180255], [169.80563849994184, -44.661335865910786], [169.8361911834222, -44.668899415239665], [169.89126873420042, -44.64427546551977], [169.94421631757052, -44.65398421594598], [169.970183300285, -44.744071032034], [169.9936877002957, -44.78647881554305], [169.99796356666428, -44.82506009913313], [170.03093663321107, -44.87006453243331], [170.06381006731797, -44.883624332536236], [170.08186609908492, -44.91211733244855], [170.06865858275566, -44.92317514848672], [170.08477396670756, -44.927428299221624], [170.09409876727366, -44.940019932567985], [170.11129369981396, -44.94686301596308], [170.13094034954275, -44.94071791609918], [170.16448541660776, -44.9460048491392], [170.2420726674589, -44.930717249128534], [170.25199321649288, -44.918826432397594], [170.2723477834187, -44.92165336529621], [170.2907174668312, -44.914142231795964], [170.3016846170497, -44.91951351511821], [170.31935306623328, -44.90304898191929], [170.34998331675135, -44.90766739912189], [170.34906388424307, -44.943095198509184], [170.3656425508677, -44.94010039899575], [170.37337940090057, -44.952393182388306], [170.36982991712605, -44.97232209848518], [170.34734105010384, -44.98963094891154], [170.34944071673652, -45.02169769895059], [170.3855441833078, -45.07787218210252], [170.3972112835807, -45.08090436586941], [170.44718860034732, -45.06595666569427], [170.46475305024657, -45.045245749280504], [170.48100979915696, -45.047320032227255], [170.53179644923256, -44.99285984867271], [170.56643455030712, -44.975662915900585], [170.57515041751114, -44.97785923230877], [170.57943210068044, -44.96549619876359], [170.6008817841304, -44.96162699864771], [170.61461120047224, -44.966670198803556], [170.63687343391538, -44.951301581797594], [170.62759639905116, -44.9336392658618], [170.6482168502156, -44.91235821557703], [170.65893595026336, -44.909183231693774], [170.67246905054, -44.9180481990349], [170.68064928388637, -44.90490443260511], [170.70937703421276, -44.90081826510747], [170.84113306655271, -44.903475148887715], [170.84113730069583, -44.89143323177507], [170.88614913336409, -44.89160679877926], [171.00135535045874, -44.92143253241406], [171.02359699992206, -44.91971799922576], [171.0828024507174, -44.93189536529276], [171.11575331759914, -44.92945613225939], [171.40680098302536, -45.01536756553635], [171.43451953283522, -44.95262461543814], [171.45395990018375, -44.86054623180287], [171.44145079978287, -44.62688528210232], [171.46381165048695, -44.58537586538974], [171.52355916711028, -44.51153353250231], [171.5444776668607, -44.426053615933434], [171.61611454983, -44.37579073204711], [171.79939231746798, -44.282998815576285], [171.95238355039731, -44.22363789908633], [172.0585753162397, -44.173237482271446], [172.19770118315708, -44.118744482180624], [172.40123729973945, -44.05732211584254], [172.6228414499114, -44.032101915447164], [172.7133222507256, -44.07276916540749], [172.8089818162675, -44.093364115198064], [172.91901589927414, -44.10288869876408], [172.99166271644674, -44.099144348914166], [173.15488838323805, -44.0581505321351], [173.25693535032957, -44.007087415850656], [173.3131099323828, -43.963944632385044], [173.35963458337335, -43.90852961595966], [173.4042185827466, -43.806170649205704], [173.40507781672113, -43.72243883254674], [173.37509406677952, -43.642039565103666], [173.32752741679195, -43.576122182269444], [173.2154614165523, -43.491674649212115], [173.15273809950136, -43.46546979843033], [172.98889098347655, -43.42472771594314], [172.984363483889, -43.35399613231422], [173.00634763353085, -43.29583909847897], [173.0446854666687, -43.27452011586256], [173.16462541647002, -43.25348758221403], [173.23089441649648, -43.22994321565726], [173.2823657992091, -43.19749681531913], [173.32333680010083, -43.15362024913976], [173.4163487664323, -43.11009151574648], [173.46277176742376, -43.07555276508694], [173.56123134927967, -42.97241634883632], [173.58297561751743, -42.92543259895937], [173.62229473310458, -42.87694308290632], [173.71596016693096, -42.69654006580456], [173.77036390077987, -42.62979291565848], [173.8614634835367, -42.59909604918926], [173.95026666734896, -42.5328646159489], [173.98532304983956, -42.475960115676735], [173.99492849987158, -42.41166709853058], [174.16424633403864, -42.274003666352904], [174.20089121605184, -42.21213239920427], [174.20789226669112, -42.1466967985229], [174.2641025839832, -42.09921513168281], [174.04764366650366, -41.96823983242783], [174.063379516939, -41.93474184887566], [174.04940518304613, -41.92908793189168], [174.0194949841752, -41.9395664819986], [174.00348793370324, -41.932082515892574], [173.97710126648084, -41.93338538235236], [173.97932755029194, -41.925635148889775], [173.96520818364718, -41.92289378244257], [173.95875125039524, -41.90852429871273], [173.93054128310882, -41.920813649353235], [173.9145082664346, -41.915240931903], [173.85118281666308, -41.93308511575676], [173.81725366702068, -41.93299698241749], [173.78940861609578, -41.95819836509493], [173.75393890010483, -41.914466748900125]]]}}, {"type": "Feature", "properties": {"code": "OTAGO", "name": "Otago region", "region": "otago"}, "geometry": {"type": "Polygon", "coordinates": [[[169.6993366341802, -43.963546282198536], [169.6710290837302, -43.95542469843436], [169.63291223373935, -43.96384033234685], [169.62325435002074, -43.956990182206226], [169.59278055065286, -43.95807616534204], [169.58258309997424, -43.98045889854035], [169.59198961690976, -44.01016793190184], [169.5790056669054, -44.03411034841148], [169.54108039936227, -44.03331826540785], [169.50670235033863, -44.05924836556611], [169.4626461668776, -44.05926119901144], [169.42850036689705, -44.09652109847316], [169.38712036695858, -44.118726198821435], [169.33868640015066, -44.1024769487743], [169.32099733333845, -44.064086315398505], [169.3089808499205, -44.06064999886217], [169.29080571579482, -44.0627260152066], [169.27949903372038, -44.09378434872741], [169.257261066431, -44.108145032341376], [169.18806785000564, -44.11053983254444], [169.1597492845808, -44.10485598140479], [169.1459246329916, -44.079896714099185], [169.08144546645806, -44.09697638140569], [169.07358791668466, -44.10960588171071], [169.03804839830647, -44.118196782080595], [169.01343018522132, -44.114767732727444], [169.0159232846438, -44.13081629804414], [168.9750784512123, -44.144029483032675], [168.9874118500703, -44.16886919873758], [168.9651810660683, -44.17375169883728], [168.95920831608305, -44.20581206515892], [168.91093963295577, -44.20979466529521], [168.90483341634143, -44.21823199876823], [168.87723098406565, -44.22284111565424], [168.87095489961428, -44.23886466550234], [168.84935459925356, -44.24614116539535], [168.85727366625508, -44.26970909914459], [168.84274111633255, -44.28334246560191], [168.83232559943906, -44.35084739940263], [168.77793688289407, -44.387932282047245], [168.75340693304483, -44.39224636570803], [168.7413199504233, -44.405422531845915], [168.74328811649005, -44.42065156556903], [168.72375945013755, -44.41743243203254], [168.68667373379827, -44.39191276593038], [168.64158605016672, -44.41655591597705], [168.62550280006775, -44.433935465692464], [168.5934691323714, -44.44177341555496], [168.5860629826311, -44.453791132264925], [168.55736918365125, -44.451723948498724], [168.52354996618254, -44.46037208247374], [168.46091804964377, -44.495388165623005], [168.28974678292406, -44.49637073194228], [168.27477931730752, -44.52036393221259], [168.23486811662994, -44.542620999091696], [168.23650608348254, -44.57671829849398], [168.2248122328289, -44.582992082538006], [168.22567578277335, -44.59807341536216], [168.21443871683744, -44.60347129846095], [168.19731491695916, -44.64333963277482], [168.18500908216436, -44.646131566258305], [168.19247964896468, -44.68066056560757], [168.17497409956962, -44.69771166521283], [168.169289865973, -44.721954098550945], [168.1819227156989, -44.745178532424426], [168.19938598302787, -44.74018681513215], [168.20527888219272, -44.746347432534904], [168.16758018267575, -44.828308565183185], [168.1274336003326, -44.82858094861618], [168.11724603327693, -44.87105024892567], [168.13716001661794, -44.9135432158295], [168.13098249948072, -44.937978632386915], [168.1760731498209, -44.966284815604695], [168.17462133291554, -44.981025565350116], [168.22040896548415, -45.00593229880551], [168.22121885062302, -45.01638991579671], [168.23568428320135, -45.02426328241565], [168.27526815003773, -45.02580258193923], [168.29592344985767, -45.01384024907953], [168.30969566630083, -45.02602031546106], [168.2913502327276, -45.040465198435164], [168.29860248333364, -45.05218809844965], [168.28420618257158, -45.10617453254098], [168.2169665504206, -45.1443633990546], [168.23937693281763, -45.1544305152676], [168.23599026610177, -45.16684969938093], [168.25488030031957, -45.18517774894181], [168.25153151654467, -45.19951113201504], [168.29962708337425, -45.22116073198571], [168.28824385021795, -45.24488038256279], [168.30704433324172, -45.260407265964915], [168.3003187505762, -45.293934015863385], [168.32329404983633, -45.32754316590301], [168.46079281577167, -45.32513798174922], [168.53940138308744, -45.30932671594437], [168.56684394927981, -45.286055315794634], [168.60764006686543, -45.27781678260042], [168.6493073839985, -45.245698732975995], [168.67410511747718, -45.24307174876939], [168.68341158295036, -45.247733449181666], [168.69784923237395, -45.311861831683025], [168.69221520069132, -45.339669749179976], [168.75163494981197, -45.36756634873605], [168.77465026642162, -45.36521296511443], [168.7686680006976, -45.403137432288375], [168.7787363002236, -45.43664628174059], [168.79620315029896, -45.43341303199668], [168.82521973302295, -45.44605696579984], [168.83048103300237, -45.43760906550067], [168.85398828323255, -45.43207331560036], [168.85881865005697, -45.4520111825317], [168.8869001325929, -45.46282046514416], [168.90679694997485, -45.449486482070185], [168.95956536628273, -45.35912208218335], [169.0127917495673, -45.30346818208289], [169.06769150064596, -45.269036282400556], [169.0901950659837, -45.286093048893484], [169.0992930330263, -45.319945748610465], [169.1294701498334, -45.33759274900667], [169.14821441577527, -45.338769998634724], [169.17074091606966, -45.38047841558129], [169.1808611326782, -45.39043546526344], [169.196490167053, -45.388378565221906], [169.20925856675498, -45.402383982269484], [169.19962389948617, -45.43431756551539], [169.1601033000334, -45.43966244894443], [169.14721051652796, -45.45055256564712], [169.13033191664758, -45.524779715361646], [169.11188260023988, -45.541840881745735], [169.09902476690584, -45.58068718216758], [169.07356046713122, -45.60443133230191], [169.05866323320632, -45.64114946548842], [169.02468873342045, -45.65963929890369], [169.0188251831473, -45.68978528193421], [169.00539475061194, -45.69844914877587], [169.00307295002355, -45.7270962993643], [168.9933720505344, -45.7285384158981], [169.00455215008122, -45.74958496516371], [169.00347010010026, -45.79576789917362], [169.02894603330603, -45.808925949159324], [169.00434940015822, -45.85973908251245], [169.05038973349917, -45.86395564904824], [169.0566226166174, -45.85010626575649], [169.0804555830635, -45.8581607818334], [169.0744737156468, -45.87106966589295], [169.09906979917994, -45.88435818239837], [169.07340906673363, -45.92474639920873], [169.09724135005837, -45.93855566542718], [169.0997187836598, -45.9480374317881], [169.06657735000095, -45.985295899290506], [169.07271758344308, -46.001615999102604], [169.1081712669015, -45.99513683183454], [169.1278177836691, -46.003126048781866], [169.07968661732198, -46.00266251547727], [169.07964769905573, -46.00827873216362], [169.1034578505257, -46.035965299126005], [169.15332813424502, -46.04874471526696], [169.15787416576367, -46.06844464903158], [169.13557106592168, -46.08539231557816], [169.16328673327223, -46.095785582640566], [169.16317200058072, -46.117105565148044], [169.13761500009187, -46.12733376511416], [169.1297833827079, -46.14777443240638], [169.1609737166729, -46.15216093210322], [169.1692392167524, -46.160977748855835], [169.15961440077453, -46.175678148588474], [169.17035778411557, -46.182754898625355], [169.16695718323766, -46.19186909896271], [169.18584633314424, -46.18929081554473], [169.18186175073853, -46.195710699144485], [169.19829236587066, -46.20044013167468], [169.18631424953136, -46.223261215671634], [169.19620006717307, -46.237608665435594], [169.1857039175185, -46.254804765975614], [169.18901261657692, -46.27991991570981], [169.17685443355546, -46.28568274888176], [169.19691505008095, -46.30431361518965], [169.17741623329076, -46.3218705986764], [169.19082658307212, -46.32640389851049], [169.14237751703624, -46.35347561586664], [169.1341438674948, -46.37543923227768], [169.17501546640253, -46.3863677491514], [169.19599751664265, -46.404406581814165], [169.19931390086052, -46.41993993215937], [169.18814871688548, -46.42744656585908], [169.19681016561697, -46.4387998825161], [169.16333239972167, -46.457722465110024], [169.1622646163675, -46.468488748451044], [169.17846961603445, -46.47830876590849], [169.1734332174477, -46.48704551569002], [169.25030178353194, -46.5133079656419], [169.22542969959943, -46.54994373202862], [169.19051695025513, -46.55692199885329], [169.26488850077243, -46.585854699392684], [169.26157808308977, -46.59855284863412], [169.27410521643475, -46.611338099258376], [169.26530656649425, -46.615492649506415], [169.2791662664351, -46.622413765900724], [169.3420553999712, -46.839221648786086], [169.44465433293587, -46.829608381885485], [169.60292246672068, -46.778137348911734], [169.7137243665989, -46.758011365693505], [170.01941221594254, -46.60173164916336], [170.08931633305494, -46.53660434884329], [170.10976826740014, -46.4937462987176], [170.11584565071738, -46.45363983228073], [170.22862636667173, -46.38074421512505], [170.31815383425217, -46.33563504855845], [170.41876945078567, -46.260140349212435], [170.4496200495851, -46.21984203236288], [170.48211738414201, -46.14110134865992], [170.62600418419348, -46.11262308230832], [170.69161079960944, -46.11118654907061], [170.76197226655012, -46.09713958169874], [170.89750653268777, -46.04598368220354], [170.97366058417072, -45.99726468192334], [171.01877466753453, -45.941097748401056], [171.03566473378, -45.882108015177685], [171.03427191672176, -45.771418698517884], [171.01858683378885, -45.723188065116105], [170.9878462172126, -45.676041931874295], [171.0075677676409, -45.635967815973025], [171.0484854823868, -45.60768286562177], [171.08471684988533, -45.56818211524492], [171.13933010009063, -45.45540553243258], [171.1522699498519, -45.37094836598866], [171.1397720502706, -45.309934382431585], [171.22461591760413, -45.225984781934486], [171.25155428348626, -45.18532746583683], [171.3272717335118, -45.12318386547812], [171.40680098302536, -45.01536756553635], [171.11575331759914, -44.92945613225939], [171.0828024507174, -44.93189536529276], [171.02359699992206, -44.91971799922576], [171.00135535045874, -44.92143253241406], [170.88614913336409, -44.89160679877926], [170.84113730069583, -44.89143323177507], [170.84113306655271, -44.903475148887715], [170.70937703421276, -44.90081826510747], [170.68064928388637, -44.90490443260511], [170.67246905054, -44.9180481990349], [170.65893595026336, -44.909183231693774], [170.6482168502156, -44.91235821557703], [170.62759639905116, -44.9336392658618], [170.63687343391538, -44.951301581797594], [170.61461120047224, -44.966670198803556], [170.6008817841304, -44.96162699864771], [170.57943210068044, -44.96549619876359], [170.57515041751114, -44.97785923230877], [170.56643455030712, -44.975662915900585], [170.53179644923256, -44.99285984867271], [170.48100979915696, -45.047320032227255], [170.46475305024657, -45.045245749280504], [170.44718860034732, -45.06595666569427], [170.3972112835807, -45.08090436586941], [170.3855441833078, -45.07787218210252], [170.34944071673652, -45.02169769895059], [170.34734105010384, -44.98963094891154], [170.36982991712605, -44.97232209848518], [170.37337940090057, -44.952393182388306], [170.3656425508677, -44.94010039899575], [170.34906388424307, -44.943095198509184], [170.34998331675135, -44.90766739912189], [170.31935306623328, -44.90304898191929], [170.3016846170497, -44.91951351511821], [170.2907174668312, -44.914142231795964], [170.2723477834187, -44.92165336529621], [170.25199321649288, -44.918826432397594], [170.2420726674589, -44.930717249128534], [170.16448541660776, -44.9460048491392], [170.13094034954275, -44.94071791609918], [170.11129369981396, -44.94686301596308], [170.09409876727366, -44.940019932567985], [170.08477396670756, -44.927428299221624], [170.06865858275566, -44.92317514848672], [170.08186609908492, -44.91211733244855], [170.06381006731797, -44.883624332536236], [170.03093663321107, -44.87006453243331], [169.99796356666428, -44.82506009913313], [169.9936877002957, -44.78647881554305], [169.970183300285, -44.744071032034], [169.94421631757052, -44.65398421594598], [169.89126873420042, -44.64427546551977], [169.8361911834222, -44.668899415239665], [169.80563849994184, -44.661335865910786], [169.7548768832774, -44.63891663180255], [169.75715179933917, -44.6121328151563], [169.7305851166043, -44.56507028169967], [169.7085019497449, -44.60097619953024], [169.68528976699147, -44.606092815957695], [169.68177189993054, -44.597888215425435], [169.64099833242577, -44.59600513194003], [169.6406918998839, -44.564783765423435], [169.663398099541, -44.53722539868763], [169.64768503409596, -44.531101882404165], [169.65015306617164, -44.520954899223334], [169.63432211633076, -44.50175214846965], [169.64747878334188, -44.48115106539498], [169.64188941693627, -44.466424648606385], [169.57387139980054, -44.46234634870687], [169.54249753385335, -44.44860019926649], [169.55620179981563, -44.437585682331715], [169.54588436748114, -44.42266239880403], [169.56561253383478, -44.40230969919418], [169.55671228381792, -44.38095399906727], [169.57878333408473, -44.34012561644673], [169.56839560000165, -44.31937198199355], [169.58060883314013, -44.252348181752225], [169.57046306740241, -44.23673219853655], [169.54849976649993, -44.227578199164725], [169.54332386678067, -44.20747434871913], [169.56070255039143, -44.20549561597126], [169.57106993387046, -44.17722914917422], [169.60582318349097, -44.15851884874528], [169.59888521597148, -44.15029901581656], [169.62044506674798, -44.13996469927757], [169.62497129975316, -44.12248121509685], [169.6386787998733, -44.11992459950188], [169.63916265024812, -44.10179616573951], [169.66123529915043, -44.09150244858714], [169.6650160164659, -44.06773734910332], [169.6820236002094, -44.06841871530965], [169.68596620000932, -44.04191803255774], [169.71963215071554, -44.03619254852999], [169.70758985019427, -44.017135265252584], [169.7114545667461, -43.99724884927013], [169.6993366341802, -43.963546282198536]]]}}, {"type": "Feature", "properties": {"code": "SOUTHLAND", "name": "Southland region", "region": "southland"}, "geometry": {"type": "Polygon", "coordinates": [[[168.078280632756, -44.26098889868434], [168.0579010500119, -44.26001646528647], [167.83811798286047, -44.12705769872476], [167.73845101687348, -44.24155091559204], [167.6313607495393, -44.327013948520985], [167.5280486328642, -44.45036141566468], [167.39334773296287, -44.52377216546578], [167.3421833659018, -44.56277463184482], [167.31191148343788, -44.59783426599382], [167.0684013318589, -44.730001648375286], [166.88371486605692, -44.88892801549205], [166.7825357322896, -44.98917488173054], [166.67712459941035, -45.070829599026816], [166.5135581319804, -45.27077958242644], [166.41368659862437, -45.43891461517894], [166.31980586491323, -45.496351032299145], [166.1897388157866, -45.62939644894497], [166.1637962323712, -45.67146506571386], [166.1516575819485, -45.71846341574857], [166.157396582607, -45.771957615907816], [166.141847265149, -45.82398469888113], [166.13946724809654, -45.92133879915181], [166.1887845821443, -46.097294999132195], [166.2783765489511, -46.21006924940393], [166.3629999822729, -46.26537624876732], [166.43442138278172, -46.33578916538072], [166.56501439916792, -46.39597999900516], [166.67030014881922, -46.41845374896206], [166.62409179899564, -46.45363044861838], [166.59180866554894, -46.493610498925285], [166.57000006514363, -46.576697932086745], [166.59798646586393, -46.656047948986576], [166.6285108492654, -46.69060699858178], [166.67459268206022, -46.72400796585397], [166.781656966602, -46.767406831955604], [166.87794800013154, -46.78167894886978], [166.99327441609745, -46.77154814940867], [167.08787051676583, -46.7366250153099], [167.15683456626016, -46.68113951525807], [167.19285518331424, -46.61153494931144], [167.19067581583062, -46.53296989842278], [167.15463388315496, -46.465033398484984], [167.29237486651806, -46.45908981549944], [167.53335456653141, -46.51277216574457], [167.54084506703228, -46.53063813194994], [167.48353688331508, -46.56558314849624], [167.41527171525533, -46.59214674878908], [167.36764233313636, -46.62340571598194], [167.31070391554258, -46.697781715333456], [167.30009970000825, -46.74799076529511], [167.30644196607713, -46.797051081972995], [167.3315965835553, -46.86273929858556], [167.36940590001072, -46.909709082057866], [167.3654041991248, -46.93458338260639], [167.24741528371223, -46.967354032112006], [167.16628716582997, -47.01958563236066], [167.04831979861132, -47.14884068206949], [167.02808634930128, -47.201577382185384], [167.02849211623584, -47.25129136569531], [167.0449381328924, -47.29664283193971], [167.08173979918595, -47.34349566531805], [167.21746093220253, -47.43139151512504], [167.31087608311745, -47.46252579849454], [167.4427115162943, -47.48578099889309], [167.53119894967335, -47.489295049007005], [167.52693308311376, -47.53538923234757], [167.53609743266404, -47.57482113176879], [167.58999163300584, -47.64822396588446], [167.68475118215673, -47.70130771520727], [167.74413326708748, -47.717041765807636], [167.80675276603785, -47.723795865879175], [167.87884525036617, -47.72024614928494], [167.95308983344123, -47.70317528212372], [168.02453823335932, -47.67255634890543], [168.07887078310156, -47.63219228178192], [168.11885698328848, -47.57535989878884], [168.13032065046016, -47.50918484879145], [168.1715976005441, -47.46818944921874], [168.19556101717166, -47.424958432422], [168.20427218303942, -47.37896019915451], [168.19548053368814, -47.32786716512719], [168.29362179973862, -47.31487171528775], [168.36086438226192, -47.29467818254734], [168.47683611578304, -47.237038815816064], [168.53335674911483, -47.18616649898239], [168.55550253273105, -47.14885136529984], [168.56680884986838, -47.10282051598105], [168.56337538344096, -47.06095526558426], [168.5440734331141, -47.01499624921818], [168.72372055064554, -46.95554693217494], [168.7996701335032, -46.906125699295195], [168.8381379166155, -46.869010798436335], [169.03426435047834, -46.87666658176817], [169.16094628417568, -46.862678782548194], [169.25309836580334, -46.861240815267266], [169.3420553999712, -46.839221648786086], [169.2791662664351, -46.622413765900724], [169.26530656649425, -46.615492649506415], [169.27410521643475, -46.611338099258376], [169.26157808308977, -46.59855284863412], [169.26488850077243, -46.585854699392684], [169.19051695025513, -46.55692199885329], [169.22542969959943, -46.54994373202862], [169.25030178353194, -46.5133079656419], [169.1734332174477, -46.48704551569002], [169.17846961603445, -46.47830876590849], [169.1622646163675, -46.468488748451044], [169.16333239972167, -46.457722465110024], [169.19681016561697, -46.4387998825161], [169.18814871688548, -46.42744656585908], [169.19931390086052, -46.41993993215937], [169.19599751664265, -46.404406581814165], [169.17501546640253, -46.3863677491514], [169.1341438674948, -46.37543923227768], [169.14237751703624, -46.35347561586664], [169.19082658307212, -46.32640389851049], [169.17741623329076, -46.3218705986764], [169.19691505008095, -46.30431361518965], [169.17685443355546, -46.28568274888176], [169.18901261657692, -46.27991991570981], [169.1857039175185, -46.254804765975614], [169.19620006717307, -46.237608665435594], [169.18631424953136, -46.223261215671634], [169.19829236587066, -46.20044013167468], [169.18186175073853, -46.195710699144485], [169.18584633314424, -46.18929081554473], [169.16695718323766, -46.19186909896271], [169.17035778411557, -46.182754898625355], [169.15961440077453, -46.175678148588474], [169.1692392167524, -46.160977748855835], [169.1609737166729, -46.15216093210322], [169.1297833827079, -46.14777443240638], [169.13761500009187, -46.12733376511416], [169.16317200058072, -46.117105565148044], [169.16328673327223, -46.095785582640566], [169.13557106592168, -46.08539231557816], [169.15787416576367, -46.06844464903158], [169.15332813424502, -46.04874471526696], [169.1034578505257, -46.035965299126005], [169.07964769905573, -46.00827873216362], [169.07968661732198, -46.00266251547727], [169.1278177836691, -46.003126048781866], [169.1081712669015, -45.99513683183454], [169.07271758344308, -46.001615999102604], [169.06657735000095, -45.985295899290506], [169.0997187836598, -45.9480374317881], [169.09724135005837, -45.93855566542718], [169.07340906673363, -45.92474639920873], [169.09906979917994, -45.88435818239837], [169.0744737156468, -45.87106966589295], [169.0804555830635, -45.8581607818334], [169.0566226166174, -45.85010626575649], [169.05038973349917, -45.86395564904824], [169.00434940015822, -45.85973908251245], [169.02894603330603, -45.808925949159324], [169.00347010010026, -45.79576789917362], [169.00455215008122, -45.74958496516371], [168.9933720505344, -45.7285384158981], [169.00307295002355, -45.7270962993643], [169.00539475061194, -45.69844914877587], [169.0188251831473, -45.68978528193421], [169.02468873342045, -45.65963929890369], [169.05866323320632, -45.64114946548842], [169.07356046713122, -45.60443133230191], [169.09902476690584, -45.58068718216758], [169.11188260023988, -45.541840881745735], [169.13033191664758, -45.524779715361646], [169.14721051652796, -45.45055256564712], [169.1601033000334, -45.43966244894443], [169.19962389948617, -45.43431756551539], [169.20925856675498, -45.402383982269484], [169.196490167053, -45.388378565221906], [169.1808611326782, -45.39043546526344], [169.17074091606966, -45.38047841558129], [169.14821441577527, -45.338769998634724], [169.1294701498334, -45.33759274900667], [169.0992930330263, -45.319945748610465], [169.0901950659837, -45.286093048893484], [169.06769150064596, -45.269036282400556], [169.0127917495673, -45.30346818208289], [168.95956536628273, -45.35912208218335], [168.90679694997485, -45.449486482070185], [168.8869001325929, -45.46282046514416], [168.85881865005697, -45.4520111825317], [168.85398828323255, -45.43207331560036], [168.83048103300237, -45.43760906550067], [168.82521973302295, -45.44605696579984], [168.79620315029896, -45.43341303199668], [168.7787363002236, -45.43664628174059], [168.7686680006976, -45.403137432288375], [168.77465026642162, -45.36521296511443], [168.75163494981197, -45.36756634873605], [168.69221520069132, -45.339669749179976], [168.69784923237395, -45.311861831683025], [168.68341158295036, -45.247733449181666], [168.67410511747718, -45.24307174876939], [168.6493073839985, -45.245698732975995], [168.60764006686543, -45.27781678260042], [168.56684394927981, -45.286055315794634], [168.53940138308744, -45.30932671594437], [168.46079281577167, -45.32513798174922], [168.32329404983633, -45.32754316590301], [168.3003187505762, -45.293934015863385], [168.30704433324172, -45.260407265964915], [168.28824385021795, -45.24488038256279], [168.29962708337425, -45.22116073198571], [168.25153151654467, -45.19951113201504], [168.25488030031957, -45.18517774894181], [168.23599026610177, -45.16684969938093], [168.23937693281763, -45.1544305152676], [168.2169665504206, -45.1443633990546], [168.28420618257158, -45.10617453254098], [168.29860248333364, -45.05218809844965], [168.2913502327276, -45.040465198435164], [168.30969566630083, -45.02602031546106], [168.29592344985767, -45.01384024907953], [168.27526815003773, -45.02580258193923], [168.23568428320135, -45.02426328241565], [168.22121885062302, -45.01638991579671], [168.22040896548415, -45.00593229880551], [168.17462133291554, -44.981025565350116], [168.1760731498209, -44.966284815604695], [168.13098249948072, -44.937978632386915], [168.13716001661794, -44.9135432158295], [168.11654214933495, -44.87640063222418], [168.1274336003326, -44.82858094861618], [168.16758018267575, -44.828308565183185], [168.20527888219272, -44.746347432534904], [168.19938598302787, -44.74018681513215], [168.1819227156989, -44.745178532424426], [168.16919319972476, -44.721286232281265], [168.17497409956962, -44.69771166521283], [168.19247964896468, -44.68066056560757], [168.18500908216436, -44.646131566258305], [168.19731491695916, -44.64333963277482], [168.21443871683744, -44.60347129846095], [168.22567578277335, -44.59807341536216], [168.2248122328289, -44.582992082538006], [168.236888682168, -44.575812198447565], [168.23461423314728, -44.542995531952116], [168.27477931730752, -44.52036393221259], [168.28974678292406, -44.49637073194228], [168.3368312164755, -44.495397099048894], [168.3368832500904, -44.47585526530942], [168.35292903317986, -44.46046418218905], [168.3487304995914, -44.45185684853165], [168.3660504502351, -44.424400948883694], [168.35176091600286, -44.40417991513746], [168.38384486722765, -44.38843454862265], [168.3854981832412, -44.378836232409476], [168.4048964494557, -44.3770543155032], [168.41135536718906, -44.36162351582616], [168.3683673323729, -44.354500881705164], [168.3813753495822, -44.33810831513534], [168.36695888347995, -44.340481415328696], [168.34816356688117, -44.32913719896049], [168.3536413666811, -44.30534096529314], [168.34536899955572, -44.28209803207002], [168.30541533247634, -44.27914174843095], [168.28040271622666, -44.26005009840812], [168.22584258340657, -44.25644548172022], [168.19554686633552, -44.27409858217929], [168.15771403359759, -44.282208148812686], [168.13143873273083, -44.28114184917594], [168.078280632756, -44.26098889868434]]]}}]}